[{"OBJECT_NAME":"ONEWEB-0223","OBJECT_ID":"2021-045B","EPOCH":"2026-01-27T06:13:01.010208","MEAN_MOTION":13.15548981,"ECCENTRICITY":0.00010876,"INCLINATION":87.9004,"RA_OF_ASC_NODE":287.3174,"ARG_OF_PERICENTER":75.6354,"MEAN_ANOMALY":284.4897,"EPHEMERIS_TYPE":0,"CLASSIFICATION_TYPE":"U","NORAD_CAT_ID":48768,"ELEMENT_SET_NO":999,"REV_AT_EPOCH":22587,"BSTAR":3.3352758e-5,"MEAN_MOTION_DOT":2.5e-7,"MEAN_MOTION_DDOT":0},{"OBJECT_NAME":"ONEWEB-0230","OBJECT_ID":"2021-045C","EPOCH":"2026-01-27T05:31:56.062272","MEAN_MOTION":13.15547556,"ECCENTRICITY":0.00016696,"INCLINATION":87.899,"RA_OF_ASC_NODE":287.35,"ARG_OF_PERICENTER":75.9284,"MEAN_ANOMALY":284.2031,"EPHEMERIS_TYPE":0,"CLASSIFICATION_TYPE":"U","NORAD_CAT_ID":48769,"ELEMENT_SET_NO":999,"REV_AT_EPOCH":22613,"BSTAR":0.00024716026,"MEAN_MOTION_DOT":1.06e-6,"MEAN_MOTION_DDOT":0},{"OBJECT_NAME":"ONEWEB-0237","OBJECT_ID":"2021-045D","EPOCH":"2026-01-27T05:15:57.449952","MEAN_MOTION":13.15547692,"ECCENTRICITY":0.00013176,"INCLINATION":87.8996,"RA_OF_ASC_NODE":287.3526,"ARG_OF_PERICENTER":71.942,"MEAN_ANOMALY":288.1854,"EPHEMERIS_TYPE":0,"CLASSIFICATION_TYPE":"U","NORAD_CAT_ID":48770,"ELEMENT_SET_NO":999,"REV_AT_EPOCH":22585,"BSTAR":-8.0382277e-5,"MEAN_MOTION_DOT":-1.7e-7,"MEAN_MOTION_DDOT":0},{"OBJECT_NAME":"ONEWEB-0235","OBJECT_ID":"2021-045E","EPOCH":"2026-01-27T06:28:58.702368","MEAN_MOTION":13.15547915,"ECCENTRICITY":0.00011418,"INCLINATION":87.9008,"RA_OF_ASC_NODE":287.3145,"ARG_OF_PERICENTER":73.273,"MEAN_ANOMALY":286.8525,"EPHEMERIS_TYPE":0,"CLASSIFICATION_TYPE":"U","NORAD_CAT_ID":48771,"ELEMENT_SET_NO":999,"REV_AT_EPOCH":22585,"BSTAR":-9.1741802e-5,"MEAN_MOTION_DOT":-2.2e-7,"MEAN_MOTION_DDOT":0},{"OBJECT_NAME":"ONEWEB-0242","OBJECT_ID":"2021-045F","EPOCH":"2026-01-27T06:19:51.168288","MEAN_MOTION":13.15548046,"ECCENTRICITY":0.00015095,"INCLINATION":87.9003,"RA_OF_ASC_NODE":287.3123,"ARG_OF_PERICENTER":70.9901,"MEAN_ANOMALY":289.1393,"EPHEMERIS_TYPE":0,"CLASSIFICATION_TYPE":"U","NORAD_CAT_ID":48772,"ELEMENT_SET_NO":999,"REV_AT_EPOCH":22589,"BSTAR":-2.172443e-6,"MEAN_MOTION_DOT":1.2e-7,"MEAN_MOTION_DDOT":0},{"OBJECT_NAME":"ONEWEB-0241","OBJECT_ID":"2021-045G","EPOCH":"2026-01-27T02:22:33.028032","MEAN_MOTION":13.15547837,"ECCENTRICITY":0.00012183,"INCLINATION":87.8991,"RA_OF_ASC_NODE":287.3784,"ARG_OF_PERICENTER":85.2551,"MEAN_ANOMALY":274.8718,"EPHEMERIS_TYPE":0,"CLASSIFICATION_TYPE":"U","NORAD_CAT_ID":48773,"ELEMENT_SET_NO":999,"REV_AT_EPOCH":22578,"BSTAR":0.0002676337,"MEAN_MOTION_DOT":1.14e-6,"MEAN_MOTION_DDOT":0},{"OBJECT_NAME":"ONEWEB-0243","OBJECT_ID":"2021-045H","EPOCH":"2026-01-27T03:08:10.909248","MEAN_MOTION":13.15548007,"ECCENTRICITY":0.0001302,"INCLINATION":87.8996,"RA_OF_ASC_NODE":287.3822,"ARG_OF_PERICENTER":64.7746,"MEAN_ANOMALY":295.3519,"EPHEMERIS_TYPE":0,"CLASSIFICATION_TYPE":"U","NORAD_CAT_ID":48774,"ELEMENT_SET_NO":999,"REV_AT_EPOCH":22581,"BSTAR":-0.00022641253,"MEAN_MOTION_DOT":-7.2e-7,"MEAN_MOTION_DDOT":0},{"OBJECT_NAME":"ONEWEB-0222","OBJECT_ID":"2021-045J","EPOCH":"2026-01-27T06:23:16.148832","MEAN_MOTION":13.15548395,"ECCENTRICITY":0.00013953,"INCLINATION":87.9005,"RA_OF_ASC_NODE":287.312,"ARG_OF_PERICENTER":77.7889,"MEAN_ANOMALY":282.3397,"EPHEMERIS_TYPE":0,"CLASSIFICATION_TYPE":"U","NORAD_CAT_ID":48775,"ELEMENT_SET_NO":999,"REV_AT_EPOCH":22587,"BSTAR":5.1961579e-5,"MEAN_MOTION_DOT":3.2e-7,"MEAN_MOTION_DDOT":0},{"OBJECT_NAME":"ONEWEB-0244","OBJECT_ID":"2021-045K","EPOCH":"2026-01-27T05:11:23.930016","MEAN_MOTION":13.15548008,"ECCENTRICITY":0.00014642,"INCLINATION":87.9009,"RA_OF_ASC_NODE":287.311,"ARG_OF_PERICENTER":72.6802,"MEAN_ANOMALY":287.4489,"EPHEMERIS_TYPE":0,"CLASSIFICATION_TYPE":"U","NORAD_CAT_ID":48776,"ELEMENT_SET_NO":999,"REV_AT_EPOCH":22643,"BSTAR":-0.00011448162,"MEAN_MOTION_DOT":-3.0e-7,"MEAN_MOTION_DDOT":0},{"OBJECT_NAME":"ONEWEB-0247","OBJECT_ID":"2021-045L","EPOCH":"2026-01-27T05:06:49.921920","MEAN_MOTION":13.15549023,"ECCENTRICITY":0.00011155,"INCLINATION":87.8993,"RA_OF_ASC_NODE":287.3616,"ARG_OF_PERICENTER":49.3955,"MEAN_ANOMALY":310.7272,"EPHEMERIS_TYPE":0,"CLASSIFICATION_TYPE":"U","NORAD_CAT_ID":48777,"ELEMENT_SET_NO":999,"REV_AT_EPOCH":22587,"BSTAR":-0.00044920752,"MEAN_MOTION_DOT":-1.56e-6,"MEAN_MOTION_DDOT":0},{"OBJECT_NAME":"ONEWEB-0245","OBJECT_ID":"2021-045M","EPOCH":"2026-01-27T03:10:28.274016","MEAN_MOTION":13.1554782,"ECCENTRICITY":0.00013654,"INCLINATION":87.8995,"RA_OF_ASC_NODE":287.3421,"ARG_OF_PERICENTER":80.4555,"MEAN_ANOMALY":279.673,"EPHEMERIS_TYPE":0,"CLASSIFICATION_TYPE":"U","NORAD_CAT_ID":48778,"ELEMENT_SET_NO":999,"REV_AT_EPOCH":22583,"BSTAR":-0.00025072821,"MEAN_MOTION_DOT":-8.2e-7,"MEAN_MOTION_DDOT":0},{"OBJECT_NAME":"ONEWEB-0229","OBJECT_ID":"2021-045N","EPOCH":"2026-01-27T06:42:39.847104","MEAN_MOTION":13.15547961,"ECCENTRICITY":0.00015325,"INCLINATION":87.9003,"RA_OF_ASC_NODE":287.3132,"ARG_OF_PERICENTER":71.3011,"MEAN_ANOMALY":288.8285,"EPHEMERIS_TYPE":0,"CLASSIFICATION_TYPE":"U","NORAD_CAT_ID":48779,"ELEMENT_SET_NO":999,"REV_AT_EPOCH":22588,"BSTAR":-0.00022200475,"MEAN_MOTION_DOT":-7.1e-7,"MEAN_MOTION_DDOT":0},{"OBJECT_NAME":"ONEWEB-0228","OBJECT_ID":"2021-045P","EPOCH":"2026-01-27T05:41:15.191232","MEAN_MOTION":13.15547795,"ECCENTRICITY":0.00014606,"INCLINATION":87.9001,"RA_OF_ASC_NODE":287.3085,"ARG_OF_PERICENTER":75.897,"MEAN_ANOMALY":284.2322,"EPHEMERIS_TYPE":0,"CLASSIFICATION_TYPE":"U","NORAD_CAT_ID":48780,"ELEMENT_SET_NO":999,"REV_AT_EPOCH":22579,"BSTAR":0.00051391306,"MEAN_MOTION_DOT":2.06e-6,"MEAN_MOTION_DDOT":0},{"OBJECT_NAME":"ONEWEB-0232","OBJECT_ID":"2021-045Q","EPOCH":"2026-01-27T03:15:01.946880","MEAN_MOTION":13.15548024,"ECCENTRICITY":0.00015319,"INCLINATION":87.9013,"RA_OF_ASC_NODE":287.3243,"ARG_OF_PERICENTER":77.2543,"MEAN_ANOMALY":282.8758,"EPHEMERIS_TYPE":0,"CLASSIFICATION_TYPE":"U","NORAD_CAT_ID":48781,"ELEMENT_SET_NO":999,"REV_AT_EPOCH":22610,"BSTAR":-0.00026424478,"MEAN_MOTION_DOT":-8.7e-7,"MEAN_MOTION_DDOT":0},{"OBJECT_NAME":"ONEWEB-0231","OBJECT_ID":"2021-045R","EPOCH":"2026-01-27T06:22:07.583520","MEAN_MOTION":13.15547693,"ECCENTRICITY":0.00013427,"INCLINATION":87.8997,"RA_OF_ASC_NODE":287.3322,"ARG_OF_PERICENTER":76.4645,"MEAN_ANOMALY":283.6635,"EPHEMERIS_TYPE":0,"CLASSIFICATION_TYPE":"U","NORAD_CAT_ID":48782,"ELEMENT_SET_NO":999,"REV_AT_EPOCH":22581,"BSTAR":5.6514071e-5,"MEAN_MOTION_DOT":3.4e-7,"MEAN_MOTION_DDOT":0},{"OBJECT_NAME":"ONEWEB-0234","OBJECT_ID":"2021-045S","EPOCH":"2026-01-27T05:27:10.317600","MEAN_MOTION":13.15547261,"ECCENTRICITY":0.0001944,"INCLINATION":87.9,"RA_OF_ASC_NODE":287.3165,"ARG_OF_PERICENTER":102.8258,"MEAN_ANOMALY":257.3089,"EPHEMERIS_TYPE":0,"CLASSIFICATION_TYPE":"U","NORAD_CAT_ID":48783,"ELEMENT_SET_NO":999,"REV_AT_EPOCH":22594,"BSTAR":0.00012481962,"MEAN_MOTION_DOT":6.0e-7,"MEAN_MOTION_DDOT":0},{"OBJECT_NAME":"ONEWEB-0238","OBJECT_ID":"2021-045T","EPOCH":"2026-01-27T05:27:33.364800","MEAN_MOTION":13.15547411,"ECCENTRICITY":0.00017627,"INCLINATION":87.9,"RA_OF_ASC_NODE":287.3099,"ARG_OF_PERICENTER":91.0788,"MEAN_ANOMALY":269.0544,"EPHEMERIS_TYPE":0,"CLASSIFICATION_TYPE":"U","NORAD_CAT_ID":48784,"ELEMENT_SET_NO":999,"REV_AT_EPOCH":22584,"BSTAR":8.3958624e-5,"MEAN_MOTION_DOT":4.4e-7,"MEAN_MOTION_DDOT":0}]
