ONEWEB-0223             
1 48768U 21045B   26027.25903947  .00000025  00000+0  33353-4 0  9998
2 48768  87.9004 287.3174 0001087  75.6354 284.4897 13.15548981225872
ONEWEB-0230             
1 48769U 21045C   26027.23050998  .00000106  00000+0  24716-3 0  9998
2 48769  87.8990 287.3500 0001669  75.9284 284.2031 13.15547556226135
ONEWEB-0237             
1 48770U 21045D   26027.21941493 -.00000017  00000+0 -80382-4 0  9992
2 48770  87.8996 287.3526 0001317  71.9420 288.1854 13.15547692225854
ONEWEB-0235             
1 48771U 21045E   26027.27012387 -.00000022  00000+0 -91742-4 0  9998
2 48771  87.9008 287.3145 0001141  73.2730 286.8525 13.15547915225859
ONEWEB-0242             
1 48772U 21045F   26027.26378667  .00000012  00000+0 -21724-5 0  9996
2 48772  87.9003 287.3123 0001509  70.9901 289.1393 13.15548046225892
ONEWEB-0241             
1 48773U 21045G   26027.09899338  .00000114  00000+0  26763-3 0  9999
2 48773  87.8991 287.3784 0001218  85.2551 274.8718 13.15547837225785
ONEWEB-0243             
1 48774U 21045H   26027.13068182 -.00000072  00000+0 -22641-3 0  9996
2 48774  87.8996 287.3822 0001302  64.7746 295.3519 13.15548007225817
ONEWEB-0222             
1 48775U 21045J   26027.26615913  .00000032  00000+0  51962-4 0  9994
2 48775  87.9005 287.3120 0001395  77.7889 282.3397 13.15548395225871
ONEWEB-0244             
1 48776U 21045K   26027.21624919 -.00000030  00000+0 -11448-3 0  9990
2 48776  87.9009 287.3110 0001464  72.6802 287.4489 13.15548008226433
ONEWEB-0247             
1 48777U 21045L   26027.21307780 -.00000156  00000+0 -44921-3 0  9996
2 48777  87.8993 287.3616 0001115  49.3955 310.7272 13.15549023225874
ONEWEB-0245             
1 48778U 21045M   26027.13227169 -.00000082  00000+0 -25073-3 0  9995
2 48778  87.8995 287.3421 0001365  80.4555 279.6730 13.15547820225831
ONEWEB-0229             
1 48779U 21045N   26027.27962786 -.00000071  00000+0 -22200-3 0  9999
2 48779  87.9003 287.3132 0001532  71.3011 288.8285 13.15547961225882
ONEWEB-0228             
1 48780U 21045P   26027.23698138  .00000206  00000+0  51391-3 0  9995
2 48780  87.9001 287.3085 0001460  75.8970 284.2322 13.15547795225799
ONEWEB-0232             
1 48781U 21045Q   26027.13543920 -.00000087  00000+0 -26424-3 0  9991
2 48781  87.9013 287.3243 0001531  77.2543 282.8758 13.15548024226109
ONEWEB-0231             
1 48782U 21045R   26027.26536555  .00000034  00000+0  56514-4 0  9996
2 48782  87.8997 287.3322 0001342  76.4645 283.6635 13.15547693225813
ONEWEB-0234             
1 48783U 21045S   26027.22720275  .00000060  00000+0  12482-3 0  9991
2 48783  87.9000 287.3165 0001944 102.8258 257.3089 13.15547261225943
ONEWEB-0238             
1 48784U 21045T   26027.22746950  .00000044  00000+0  83959-4 0  9990
2 48784  87.9000 287.3099 0001762  91.0788 269.0544 13.15547411225847
